[
    {
        "OBJECT_NAME": "NAVSTAR 1 (OPS 5111)",
        "OBJECT_ID": "1978-020A",
        "EPOCH": "2026-07-09T03:13:11.463744",
        "MEAN_MOTION": 1.9807213,
        "ECCENTRICITY": 0.00809435,
        "INCLINATION": 64.3678,
        "RA_OF_ASC_NODE": 51.6638,
        "ARG_OF_PERICENTER": 219.1086,
        "MEAN_ANOMALY": 140.3718,
        "EPHEMERIS_TYPE": 0,
        "CLASSIFICATION_TYPE": "U",
        "NORAD_CAT_ID": 10684,
        "ELEMENT_SET_NO": 999,
        "REV_AT_EPOCH": 33687,
        "BSTAR": 0,
        "MEAN_MOTION_DOT": -2.8e-07,
        "MEAN_MOTION_DDOT": 0
    },
    {
        "OBJECT_NAME": "NAVSTAR 2 (OPS 5112)",
        "OBJECT_ID": "1978-047A",
        "EPOCH": "2026-07-09T11:52:48.285120",
        "MEAN_MOTION": 2.01626263,
        "ECCENTRICITY": 0.05465753,
        "INCLINATION": 62.6488,
        "RA_OF_ASC_NODE": 271.5544,
        "ARG_OF_PERICENTER": 41.5091,
        "MEAN_ANOMALY": 320.9299,
        "EPHEMERIS_TYPE": 0,
        "CLASSIFICATION_TYPE": "U",
        "NORAD_CAT_ID": 10893,
        "ELEMENT_SET_NO": 999,
        "REV_AT_EPOCH": 35417,
        "BSTAR": 0,
        "MEAN_MOTION_DOT": -1e-08,
        "MEAN_MOTION_DDOT": 0
    },
    {
        "OBJECT_NAME": "NAVSTAR 3 (OPS 5113)",
        "OBJECT_ID": "1978-093A",
        "EPOCH": "2026-07-08T00:05:16.109088",
        "MEAN_MOTION": 1.93504643,
        "ECCENTRICITY": 0.0101522,
        "INCLINATION": 62.913,
        "RA_OF_ASC_NODE": 299.5607,
        "ARG_OF_PERICENTER": 227.0348,
        "MEAN_ANOMALY": 129.8655,
        "EPHEMERIS_TYPE": 0,
        "CLASSIFICATION_TYPE": "U",
        "NORAD_CAT_ID": 11054,
        "ELEMENT_SET_NO": 999,
        "REV_AT_EPOCH": 34107,
        "BSTAR": 0,
        "MEAN_MOTION_DOT": -5.1e-07,
        "MEAN_MOTION_DDOT": 0
    },
    {
        "OBJECT_NAME": "NAVSTAR 4 (OPS 5114)",
        "OBJECT_ID": "1978-112A",
        "EPOCH": "2026-07-08T13:46:06.686400",
        "MEAN_MOTION": 1.92895392,
        "ECCENTRICITY": 0.01459362,
        "INCLINATION": 63.7195,
        "RA_OF_ASC_NODE": 71.5035,
        "ARG_OF_PERICENTER": 50.998,
        "MEAN_ANOMALY": 129.4189,
        "EPHEMERIS_TYPE": 0,
        "CLASSIFICATION_TYPE": "U",
        "NORAD_CAT_ID": 11141,
        "ELEMENT_SET_NO": 999,
        "REV_AT_EPOCH": 22950,
        "BSTAR": 0,
        "MEAN_MOTION_DOT": -2.9e-07,
        "MEAN_MOTION_DDOT": 0
    },
    {
        "OBJECT_NAME": "NAVSTAR 5 (OPS 5117)",
        "OBJECT_ID": "1980-011A",
        "EPOCH": "2026-06-23T14:21:37.367424",
        "MEAN_MOTION": 2.00576747,
        "ECCENTRICITY": 0.04886406,
        "INCLINATION": 64.7896,
        "RA_OF_ASC_NODE": 48.413,
        "ARG_OF_PERICENTER": 205.0584,
        "MEAN_ANOMALY": 350.4005,
        "EPHEMERIS_TYPE": 0,
        "CLASSIFICATION_TYPE": "U",
        "NORAD_CAT_ID": 11690,
        "ELEMENT_SET_NO": 999,
        "REV_AT_EPOCH": 35385,
        "BSTAR": 0,
        "MEAN_MOTION_DOT": -8.2e-07,
        "MEAN_MOTION_DDOT": 0
    },
    {
        "OBJECT_NAME": "NAVSTAR 6 (OPS 5118)",
        "OBJECT_ID": "1980-032A",
        "EPOCH": "2026-07-10T04:10:33.796992",
        "MEAN_MOTION": 2.0345598,
        "ECCENTRICITY": 0.05527419,
        "INCLINATION": 61.8309,
        "RA_OF_ASC_NODE": 247.6462,
        "ARG_OF_PERICENTER": 51.5822,
        "MEAN_ANOMALY": 19.4487,
        "EPHEMERIS_TYPE": 0,
        "CLASSIFICATION_TYPE": "U",
        "NORAD_CAT_ID": 11783,
        "ELEMENT_SET_NO": 999,
        "REV_AT_EPOCH": 34222,
        "BSTAR": 0,
        "MEAN_MOTION_DOT": 6.3e-07,
        "MEAN_MOTION_DDOT": 0
    },
    {
        "OBJECT_NAME": "NAVSTAR 8 (OPS 9794)",
        "OBJECT_ID": "1983-072A",
        "EPOCH": "2026-07-10T05:42:20.314368",
        "MEAN_MOTION": 1.9171926,
        "ECCENTRICITY": 0.02233838,
        "INCLINATION": 63.4501,
        "RA_OF_ASC_NODE": 68.2194,
        "ARG_OF_PERICENTER": 56.8045,
        "MEAN_ANOMALY": 146.2542,
        "EPHEMERIS_TYPE": 0,
        "CLASSIFICATION_TYPE": "U",
        "NORAD_CAT_ID": 14189,
        "ELEMENT_SET_NO": 999,
        "REV_AT_EPOCH": 22716,
        "BSTAR": 0,
        "MEAN_MOTION_DOT": -3e-07,
        "MEAN_MOTION_DDOT": 0
    },
    {
        "OBJECT_NAME": "NAVSTAR 9 (USA 1)",
        "OBJECT_ID": "1984-059A",
        "EPOCH": "2026-07-08T10:35:08.594016",
        "MEAN_MOTION": 1.92302702,
        "ECCENTRICITY": 0.02438881,
        "INCLINATION": 63.5955,
        "RA_OF_ASC_NODE": 63.6852,
        "ARG_OF_PERICENTER": 54.0947,
        "MEAN_ANOMALY": 123.6228,
        "EPHEMERIS_TYPE": 0,
        "CLASSIFICATION_TYPE": "U",
        "NORAD_CAT_ID": 15039,
        "ELEMENT_SET_NO": 999,
        "REV_AT_EPOCH": 29853,
        "BSTAR": 0,
        "MEAN_MOTION_DOT": -3.1e-07,
        "MEAN_MOTION_DDOT": 0
    },
    {
        "OBJECT_NAME": "NAVSTAR 10 (USA 5)",
        "OBJECT_ID": "1984-097A",
        "EPOCH": "2026-07-09T11:45:38.706912",
        "MEAN_MOTION": 1.92619021,
        "ECCENTRICITY": 0.01487607,
        "INCLINATION": 62.1222,
        "RA_OF_ASC_NODE": 290.2691,
        "ARG_OF_PERICENTER": 226.7882,
        "MEAN_ANOMALY": 129.1113,
        "EPHEMERIS_TYPE": 0,
        "CLASSIFICATION_TYPE": "U",
        "NORAD_CAT_ID": 15271,
        "ELEMENT_SET_NO": 999,
        "REV_AT_EPOCH": 29674,
        "BSTAR": 0,
        "MEAN_MOTION_DOT": -4.2e-07,
        "MEAN_MOTION_DDOT": 0
    },
    {
        "OBJECT_NAME": "NAVSTAR 11 (USA 10)",
        "OBJECT_ID": "1985-093A",
        "EPOCH": "2026-07-10T04:37:19.782912",
        "MEAN_MOTION": 1.8936875,
        "ECCENTRICITY": 0.03436228,
        "INCLINATION": 63.572,
        "RA_OF_ASC_NODE": 83.981,
        "ARG_OF_PERICENTER": 56.0882,
        "MEAN_ANOMALY": 117.434,
        "EPHEMERIS_TYPE": 0,
        "CLASSIFICATION_TYPE": "U",
        "NORAD_CAT_ID": 16129,
        "ELEMENT_SET_NO": 999,
        "REV_AT_EPOCH": 22973,
        "BSTAR": 0,
        "MEAN_MOTION_DOT": -3e-07,
        "MEAN_MOTION_DDOT": 0
    },
    {
        "OBJECT_NAME": "NAVSTAR 13 (USA 35)",
        "OBJECT_ID": "1989-013A",
        "EPOCH": "2026-07-07T09:01:59.639808",
        "MEAN_MOTION": 1.8532546,
        "ECCENTRICITY": 0.00433551,
        "INCLINATION": 55.0397,
        "RA_OF_ASC_NODE": 93.9512,
        "ARG_OF_PERICENTER": 250.7124,
        "MEAN_ANOMALY": 292.2387,
        "EPHEMERIS_TYPE": 0,
        "CLASSIFICATION_TYPE": "U",
        "NORAD_CAT_ID": 19802,
        "ELEMENT_SET_NO": 999,
        "REV_AT_EPOCH": 25864,
        "BSTAR": 0,
        "MEAN_MOTION_DOT": -1.5e-07,
        "MEAN_MOTION_DDOT": 0
    },
    {
        "OBJECT_NAME": "NAVSTAR 14 (USA 38)",
        "OBJECT_ID": "1989-044A",
        "EPOCH": "2026-07-10T06:39:09.141696",
        "MEAN_MOTION": 1.88858212,
        "ECCENTRICITY": 0.00287307,
        "INCLINATION": 53.2938,
        "RA_OF_ASC_NODE": 238.865,
        "ARG_OF_PERICENTER": 212.4485,
        "MEAN_ANOMALY": 245.2368,
        "EPHEMERIS_TYPE": 0,
        "CLASSIFICATION_TYPE": "U",
        "NORAD_CAT_ID": 20061,
        "ELEMENT_SET_NO": 999,
        "REV_AT_EPOCH": 26222,
        "BSTAR": 0,
        "MEAN_MOTION_DOT": 7.4e-07,
        "MEAN_MOTION_DDOT": 0
    },
    {
        "OBJECT_NAME": "NAVSTAR 15 (USA 42)",
        "OBJECT_ID": "1989-064A",
        "EPOCH": "2026-07-07T01:36:01.478592",
        "MEAN_MOTION": 1.86088349,
        "ECCENTRICITY": 0.00117176,
        "INCLINATION": 54.982,
        "RA_OF_ASC_NODE": 88.6935,
        "ARG_OF_PERICENTER": 324.3756,
        "MEAN_ANOMALY": 215.4587,
        "EPHEMERIS_TYPE": 0,
        "CLASSIFICATION_TYPE": "U",
        "NORAD_CAT_ID": 20185,
        "ELEMENT_SET_NO": 999,
        "REV_AT_EPOCH": 25657,
        "BSTAR": 0,
        "MEAN_MOTION_DOT": -2e-07,
        "MEAN_MOTION_DDOT": 0
    },
    {
        "OBJECT_NAME": "NAVSTAR 16 (USA 47)",
        "OBJECT_ID": "1989-085A",
        "EPOCH": "2026-07-10T03:02:19.192992",
        "MEAN_MOTION": 1.89425943,
        "ECCENTRICITY": 0.00082348,
        "INCLINATION": 53.9753,
        "RA_OF_ASC_NODE": 182.7536,
        "ARG_OF_PERICENTER": 70.2043,
        "MEAN_ANOMALY": 20.2375,
        "EPHEMERIS_TYPE": 0,
        "CLASSIFICATION_TYPE": "U",
        "NORAD_CAT_ID": 20302,
        "ELEMENT_SET_NO": 999,
        "REV_AT_EPOCH": 25897,
        "BSTAR": 0,
        "MEAN_MOTION_DOT": 1.1e-06,
        "MEAN_MOTION_DDOT": 0
    },
    {
        "OBJECT_NAME": "NAVSTAR 17 (USA 49)",
        "OBJECT_ID": "1989-097A",
        "EPOCH": "2026-07-07T14:50:07.395360",
        "MEAN_MOTION": 1.89176269,
        "ECCENTRICITY": 0.00221884,
        "INCLINATION": 56.3981,
        "RA_OF_ASC_NODE": 10.3651,
        "ARG_OF_PERICENTER": 321.458,
        "MEAN_ANOMALY": 42.1656,
        "EPHEMERIS_TYPE": 0,
        "CLASSIFICATION_TYPE": "U",
        "NORAD_CAT_ID": 20361,
        "ELEMENT_SET_NO": 999,
        "REV_AT_EPOCH": 24974,
        "BSTAR": 0,
        "MEAN_MOTION_DOT": -6.3e-07,
        "MEAN_MOTION_DDOT": 0
    },
    {
        "OBJECT_NAME": "NAVSTAR 18 (USA 50)",
        "OBJECT_ID": "1990-008A",
        "EPOCH": "2026-07-07T14:09:57.669120",
        "MEAN_MOTION": 1.89597761,
        "ECCENTRICITY": 0.0015553,
        "INCLINATION": 54.8668,
        "RA_OF_ASC_NODE": 132.9347,
        "ARG_OF_PERICENTER": 283.6031,
        "MEAN_ANOMALY": 259.7799,
        "EPHEMERIS_TYPE": 0,
        "CLASSIFICATION_TYPE": "U",
        "NORAD_CAT_ID": 20452,
        "ELEMENT_SET_NO": 999,
        "REV_AT_EPOCH": 25681,
        "BSTAR": 0,
        "MEAN_MOTION_DOT": 5.1e-07,
        "MEAN_MOTION_DDOT": 0
    }
]
